[{"OBJECT_NAME":"STARLINK-34428","OBJECT_ID":"2025-123C","EPOCH":"2026-03-09T16:54:24.343488","MEAN_MOTION":14.98337283,"ECCENTRICITY":0.0003157,"INCLINATION":70.003,"RA_OF_ASC_NODE":194.3014,"ARG_OF_PERICENTER":272.9746,"MEAN_ANOMALY":87.1052,"EPHEMERIS_TYPE":0,"CLASSIFICATION_TYPE":"U","NORAD_CAT_ID":64293,"ELEMENT_SET_NO":999,"REV_AT_EPOCH":4284,"BSTAR":0.00064668709,"MEAN_MOTION_DOT":7.633e-5,"MEAN_MOTION_DDOT":0},{"OBJECT_NAME":"RAPIDEYE 5","OBJECT_ID":"2008-040B","EPOCH":"2026-03-09T15:17:22.403904","MEAN_MOTION":15.02179038,"ECCENTRICITY":0.0014834,"INCLINATION":97.3944,"RA_OF_ASC_NODE":91.3825,"ARG_OF_PERICENTER":86.9831,"MEAN_ANOMALY":273.3091,"EPHEMERIS_TYPE":0,"CLASSIFICATION_TYPE":"U","NORAD_CAT_ID":33313,"ELEMENT_SET_NO":999,"REV_AT_EPOCH":95055,"BSTAR":0.00014028,"MEAN_MOTION_DOT":1.794e-5,"MEAN_MOTION_DDOT":0}]
